STARLINK-3862           
1 52471U 22049W   26068.38996466  .00000901  00000+0  74687-4 0  9994
2 52471  53.2166  60.4748 0001467  81.7422 278.3736 15.08839619212208
LEMUR-2-STELLA          
1 60533U 24149BT  26068.72657350  .00013685  00000+0  85776-3 0  9992
2 60533  97.6764 150.9122 0001299  95.1117 265.0260 15.09464064 85488
